start=new Date('2022-09-23T00:00:00.000Z').valueOf();
sats=[{"TLE_LINE1":"1 48023U 21024AY  22265.21720860  .00002133  00000-0  16202-3 0  9992","SITE":"AFETR","CENTER_NAME":"EARTH","MEAN_ANOMALY":"267.3138","PERIOD":"95.592","DECAY_DATE":null,"RA_OF_ASC_NODE":"248.0676","OBJECT_ID":"2021-024AY","MEAN_MOTION_DOT":"0.00002133","APOAPSIS":"548.147","REF_FRAME":"TEME","GP_ID":"213228439","EPOCH":"2022-09-22T05:12:46.823040","ECCENTRICITY":"0.00013640","NORAD_CAT_ID":"48023","FILE":"3580347","ARG_OF_PERICENTER":"92.8007","COUNTRY_CODE":"US","PERIAPSIS":"546.258","BSTAR":"0.00016202000000","TLE_LINE2":"2 48023  53.0523 248.0676 0001364  92.8007 267.3138 15.06403506 84046","OBJECT_NAME":"STARLINK-2292","MEAN_MOTION_DDOT":"0.0000000000000","INCLINATION":"53.0523","REV_AT_EPOCH":"8404","ELEMENT_SET_NO":"999","OBJECT_TYPE":"PAYLOAD","MEAN_MOTION":"15.06403506","TIME_SYSTEM":"UTC","RCS_SIZE":"LARGE","CLASSIFICATION_TYPE":"U","LAUNCH_DATE":"2021-03-24","MEAN_ELEMENT_THEORY":"SGP4","SEMIMAJOR_AXIS":"6925.338","EPHEMERIS_TYPE":"0"},{"ARG_OF_PERICENTER":"81.7643","PERIAPSIS":"546.391","COUNTRY_CODE":"US","BSTAR":"0.00010144000000","GP_ID":"213228190","EPOCH":"2022-09-22T09:29:33.324576","NORAD_CAT_ID":"48026","ECCENTRICITY":"0.00012310","FILE":"3580347","RA_OF_ASC_NODE":"252.2496","OBJECT_ID":"2021-024BB","MEAN_MOTION_DOT":"0.00001229","REF_FRAME":"TEME","APOAPSIS":"548.096","TLE_LINE1":"1 48026U 21024BB  22265.39552459  .00001229  00000-0  10144-3 0  9995","SITE":"AFETR","DECAY_DATE":null,"PERIOD":"95.593","CENTER_NAME":"EARTH","MEAN_ANOMALY":"278.3486","SEMIMAJOR_AXIS":"6925.378","MEAN_ELEMENT_THEORY":"SGP4","EPHEMERIS_TYPE":"0","LAUNCH_DATE":"2021-03-24","RCS_SIZE":"LARGE","CLASSIFICATION_TYPE":"U","TIME_SYSTEM":"UTC","MEAN_MOTION":"15.06390352","TLE_LINE2":"2 48026  53.0548 252.2496 0001231  81.7643 278.3486 15.06390352 83949","OBJECT_NAME":"STARLINK-2278","MEAN_MOTION_DDOT":"0.0000000000000","INCLINATION":"53.0548","REV_AT_EPOCH":"8394","OBJECT_TYPE":"PAYLOAD","ELEMENT_SET_NO":"999"},{"MEAN_MOTION_DDOT":"0.0000000000000","TLE_LINE2":"2 48027  53.0520 228.3221 0001592  98.4528 261.6641 15.06395750 83784","OBJECT_NAME":"STARLINK-2300","OBJECT_TYPE":"PAYLOAD","ELEMENT_SET_NO":"999","REV_AT_EPOCH":"8378","INCLINATION":"53.0520","TIME_SYSTEM":"UTC","MEAN_MOTION":"15.06395750","LAUNCH_DATE":"2021-03-24","CLASSIFICATION_TYPE":"U","RCS_SIZE":"LARGE","EPHEMERIS_TYPE":"0","SEMIMAJOR_AXIS":"6925.362","MEAN_ELEMENT_THEORY":"SGP4","SITE":"AFETR","TLE_LINE1":"1 48027U 21024BC  22265.15638947  .00001967  00000-0  15092-3 0  9993","PERIOD":"95.592","DECAY_DATE":null,"MEAN_ANOMALY":"261.6641","CENTER_NAME":"EARTH","OBJECT_ID":"2021-024BC","MEAN_MOTION_DOT":"0.00001967","RA_OF_ASC_NODE":"228.3221","REF_FRAME":"TEME","APOAPSIS":"548.329","EPOCH":"2022-09-22T03:45:12.050208","GP_ID":"213198260","FILE":"3579938","NORAD_CAT_ID":"48027","ECCENTRICITY":"0.00015920","PERIAPSIS":"546.124","COUNTRY_CODE":"US","ARG_OF_PERICENTER":"98.4528","BSTAR":"0.00015092000000"},{"MEAN_MOTION":"15.06391580","TIME_SYSTEM":"UTC","REV_AT_EPOCH":"8492","INCLINATION":"53.0536","ELEMENT_SET_NO":"999","OBJECT_TYPE":"PAYLOAD","MEAN_MOTION_DDOT":"0.0000000000000","TLE_LINE2":"2 48028  53.0536 184.1004 0001397  77.1374 282.9771 15.06391580 84920","OBJECT_NAME":"STARLINK-2264","MEAN_ELEMENT_THEORY":"SGP4","SEMIMAJOR_AXIS":"6925.374","EPHEMERIS_TYPE":"0","CLASSIFICATION_TYPE":"U","RCS_SIZE":"LARGE","LAUNCH_DATE":"2021-03-24","APOAPSIS":"548.207","REF_FRAME":"TEME","RA_OF_ASC_NODE":"184.1004","OBJECT_ID":"2021-024BD","MEAN_MOTION_DOT":"0.00004366","CENTER_NAME":"EARTH","MEAN_ANOMALY":"282.9771","DECAY_DATE":null,"PERIOD":"95.593","TLE_LINE1":"1 48028U 21024BD  22265.07396504  .00004366  00000-0  31191-3 0  9999","SITE":"AFETR","BSTAR":"0.00031191000000","ARG_OF_PERICENTER":"77.1374","COUNTRY_CODE":"US","PERIAPSIS":"546.272","ECCENTRICITY":"0.00013970","NORAD_CAT_ID":"48028","FILE":"3580347","GP_ID":"213227688","EPOCH":"2022-09-22T01:46:30.579456"},{"LAUNCH_DATE":"2021-03-24","CLASSIFICATION_TYPE":"U","RCS_SIZE":"LARGE","SEMIMAJOR_AXIS":"6925.375","MEAN_ELEMENT_THEORY":"SGP4","EPHEMERIS_TYPE":"0","INCLINATION":"53.0532","REV_AT_EPOCH":"8413","OBJECT_TYPE":"PAYLOAD","ELEMENT_SET_NO":"999","MEAN_MOTION_DDOT":"0.0000000000000","TLE_LINE2":"2 48029  53.0532 245.4729 0001734  56.6629 303.4526 15.06391425 84130","OBJECT_NAME":"STARLINK-2299","TIME_SYSTEM":"UTC","MEAN_MOTION":"15.06391425","NORAD_CAT_ID":"48029","ECCENTRICITY":"0.00017340","FILE":"3580594","EPOCH":"2022-09-22T19:00:48.083616","GP_ID":"213259982","BSTAR":"0.00000985210000","ARG_OF_PERICENTER":"56.6629","PERIAPSIS":"546.039","COUNTRY_CODE":"US","DECAY_DATE":null,"PERIOD":"95.593","MEAN_ANOMALY":"303.4526","CENTER_NAME":"EARTH","TLE_LINE1":"1 48029U 21024BE  22265.79222319 -.00000135  00000-0  98521-5 0  9994","SITE":"AFETR","REF_FRAME":"TEME","APOAPSIS":"548.441","RA_OF_ASC_NODE":"245.4729","OBJECT_ID":"2021-024BE","MEAN_MOTION_DOT":"-0.00000135"},{"RA_OF_ASC_NODE":"250.9459","MEAN_MOTION_DOT":"0.00000225","OBJECT_ID":"2021-024BF","APOAPSIS":"547.770","REF_FRAME":"TEME","TLE_LINE1":"1 48030U 21024BF  22265.68671186  .00000225  00000-0  34017-4 0  9992","SITE":"AFETR","MEAN_ANOMALY":"17.1899","CENTER_NAME":"EARTH","PERIOD":"95.593","DECAY_DATE":null,"ARG_OF_PERICENTER":"342.9064","COUNTRY_CODE":"US","PERIAPSIS":"546.709","BSTAR":"0.00003401700000","EPOCH":"2022-09-22T16:28:51.904704","GP_ID":"213235278","ECCENTRICITY":"0.00007660","NORAD_CAT_ID":"48030","FILE":"3580486","MEAN_MOTION":"15.06391672","TIME_SYSTEM":"UTC","OBJECT_NAME":"STARLINK-2268","TLE_LINE2":"2 48030  53.0512 250.9459 0000766 342.9064  17.1899 15.06391672 83516","MEAN_MOTION_DDOT":"0.0000000000000","INCLINATION":"53.0512","REV_AT_EPOCH":"8351","ELEMENT_SET_NO":"999","OBJECT_TYPE":"PAYLOAD","MEAN_ELEMENT_THEORY":"SGP4","SEMIMAJOR_AXIS":"6925.374","EPHEMERIS_TYPE":"0","CLASSIFICATION_TYPE":"U","RCS_SIZE":"LARGE","LAUNCH_DATE":"2021-03-24"},{"ARG_OF_PERICENTER":"67.2173","PERIAPSIS":"545.950","COUNTRY_CODE":"US","BSTAR":"-0.00043201000000","GP_ID":"213258980","EPOCH":"2022-09-22T20:34:59.285568","NORAD_CAT_ID":"48031","ECCENTRICITY":"0.00016920","FILE":"3580594","RA_OF_ASC_NODE":"135.1868","OBJECT_ID":"2021-024BG","MEAN_MOTION_DOT":"-0.00006716","REF_FRAME":"TEME","APOAPSIS":"548.293","TLE_LINE1":"1 48031U 21024BG  22265.85763062 -.00006716  00000-0 -43201-3 0  9994","SITE":"AFETR","PERIOD":"95.590","DECAY_DATE":null,"CENTER_NAME":"EARTH","MEAN_ANOMALY":"292.8995","SEMIMAJOR_AXIS":"6925.256","MEAN_ELEMENT_THEORY":"SGP4","EPHEMERIS_TYPE":"0","LAUNCH_DATE":"2021-03-24","RCS_SIZE":"LARGE","CLASSIFICATION_TYPE":"U","TIME_SYSTEM":"UTC","MEAN_MOTION":"15.06430056","MEAN_MOTION_DDOT":"0.0000000000000","TLE_LINE2":"2 48031  53.0544 135.1868 0001692  67.2173 292.8995 15.06430056 85620","OBJECT_NAME":"STARLINK-2267","REV_AT_EPOCH":"8562","INCLINATION":"53.0544","OBJECT_TYPE":"PAYLOAD","ELEMENT_SET_NO":"999"},{"REF_FRAME":"TEME","APOAPSIS":"548.309","RA_OF_ASC_NODE":"245.2402","OBJECT_ID":"2021-024BJ","MEAN_MOTION_DOT":"0.00003834","PERIOD":"95.592","DECAY_DATE":null,"CENTER_NAME":"EARTH","MEAN_ANOMALY":"285.6630","TLE_LINE1":"1 48033U 21024BJ  22265.84751546  .00003834  00000-0  27609-3 0  9999","SITE":"AFETR","BSTAR":"0.00027609000000","ARG_OF_PERICENTER":"74.4536","PERIAPSIS":"546.094","COUNTRY_CODE":"US","NORAD_CAT_ID":"48033","ECCENTRICITY":"0.00015990","FILE":"3580594","EPOCH":"2022-09-22T20:20:25.335744","GP_ID":"213259732","TIME_SYSTEM":"UTC","MEAN_MOTION":"15.06403952","REV_AT_EPOCH":"8414","INCLINATION":"53.0529","OBJECT_TYPE":"PAYLOAD","ELEMENT_SET_NO":"999","TLE_LINE2":"2 48033  53.0529 245.2402 0001599  74.4536 285.6630 15.06403952 84148","OBJECT_NAME":"STARLINK-2286","MEAN_MOTION_DDOT":"0.0000000000000","SEMIMAJOR_AXIS":"6925.336","MEAN_ELEMENT_THEORY":"SGP4","EPHEMERIS_TYPE":"0","LAUNCH_DATE":"2021-03-24","RCS_SIZE":"LARGE","CLASSIFICATION_TYPE":"U"},{"TLE_LINE2":"2 48034  53.0530 246.0445 0001425  76.0879 284.0268 15.06400378 83589","OBJECT_NAME":"STARLINK-2288","MEAN_MOTION_DDOT":"0.0000000000000","ELEMENT_SET_NO":"999","OBJECT_TYPE":"PAYLOAD","INCLINATION":"53.0530","REV_AT_EPOCH":"8358","MEAN_MOTION":"15.06400378","TIME_SYSTEM":"UTC","CLASSIFICATION_TYPE":"U","RCS_SIZE":"LARGE","LAUNCH_DATE":"2021-03-24","EPHEMERIS_TYPE":"0","MEAN_ELEMENT_THEORY":"SGP4","SEMIMAJOR_AXIS":"6925.347","SITE":"AFETR","TLE_LINE1":"1 48034U 21024BK  22265.66688983  .00004838  00000-0  34344-3 0  9993","CENTER_NAME":"EARTH","MEAN_ANOMALY":"284.0268","DECAY_DATE":null,"PERIOD":"95.592","MEAN_MOTION_DOT":"0.00004838","OBJECT_ID":"2021-024BK","RA_OF_ASC_NODE":"246.0445","APOAPSIS":"548.199","REF_FRAME":"TEME","GP_ID":"213235781","EPOCH":"2022-09-22T16:00:19.281312","FILE":"3580486","ECCENTRICITY":"0.00014250","NORAD_CAT_ID":"48034","COUNTRY_CODE":"US","PERIAPSIS":"546.226","ARG_OF_PERICENTER":"76.0879","BSTAR":"0.00034344000000"},{"SITE":"AFETR","TLE_LINE1":"1 48036U 21024BM  22265.67426967  .00002384  00000-0  17889-3 0  9997","DECAY_DATE":null,"PERIOD":"95.592","MEAN_ANOMALY":"296.1959","CENTER_NAME":"EARTH","OBJECT_ID":"2021-024BM","MEAN_MOTION_DOT":"0.00002384","RA_OF_ASC_NODE":"246.0190","REF_FRAME":"TEME","APOAPSIS":"548.305","EPOCH":"2022-09-22T16:10:56.899488","GP_ID":"213235789","FILE":"3580486","NORAD_CAT_ID":"48036","ECCENTRICITY":"0.00015680","PERIAPSIS":"546.133","COUNTRY_CODE":"US","ARG_OF_PERICENTER":"63.9191","BSTAR":"0.00017889000000","OBJECT_NAME":"STARLINK-2295","TLE_LINE2":"2 48036  53.0537 246.0190 0001568  63.9191 296.1959 15.06398221 83589","MEAN_MOTION_DDOT":"0.0000000000000","OBJECT_TYPE":"PAYLOAD","ELEMENT_SET_NO":"999","REV_AT_EPOCH":"8358","INCLINATION":"53.0537","TIME_SYSTEM":"UTC","MEAN_MOTION":"15.06398221","LAUNCH_DATE":"2021-03-24","RCS_SIZE":"LARGE","CLASSIFICATION_TYPE":"U","EPHEMERIS_TYPE":"0","SEMIMAJOR_AXIS":"6925.354","MEAN_ELEMENT_THEORY":"SGP4"}];
